{
"type": "FeatureCollection",
"name": "bairros_cassilandia",
"crs": { "type": "name", "properties": { "name": "urn:ogc:def:crs:OGC:1.3:CRS84" } },
"features": [
{"type":"Feature","properties":{"osm_id":"952813401","code":1010,"fclass":"suburb","population":0,"name":"Vila Pernambuco"},"geometry":{"type":"MultiPolygon","coordinates":[[[[-51.747609286239538,-19.104950733189753],[-51.747666333834218,-19.104916522079805],[-51.747672067911537,-19.104912804282435],[-51.74834413397457,-19.104572336244303],[-51.747974955080053,-19.104342846345219],[-51.746488261524007,-19.10316546471438],[-51.744672100437072,-19.102005199880011],[-51.742983900286731,-19.101167600104588],[-51.741732900153181,-19.101013100174384],[-51.740751800055477,-19.101229399716999],[-51.739369999825612,-19.10079679973245],[-51.738503399612171,-19.100549600383715],[-51.738364400396733,-19.101043999980561],[-51.738560600091603,-19.101600299913855],[-51.737840000315714,-19.102159000137704],[-51.736786600121434,-19.102737499835712],[-51.736145299865655,-19.103068200337134],[-51.735686300282509,-19.10331600043304],[-51.735454099826825,-19.103328299561326],[-51.735466700228017,-19.102555899734966],[-51.735468700320212,-19.10247789973522],[-51.735047400317228,-19.102435799772309],[-51.734580500189907,-19.102389099777099],[-51.734458999982849,-19.102359299841794],[-51.734405100015294,-19.102380899758657],[-51.734114100085606,-19.102738800255395],[-51.734019700049089,-19.102754200246125],[-51.733768899814834,-19.102443700316485],[-51.733547799691166,-19.102169999745627],[-51.732341324992092,-19.100696736665043],[-51.731666069033793,-19.10055642354007],[-51.73087680871771,-19.102459417767875],[-51.730616999974529,-19.103960899775643],[-51.730537800279194,-19.104279599723725],[-51.730496499813569,-19.104582100183734],[-51.73042080027966,-19.104845599744579],[-51.730386400312057,-19.105102599905024],[-51.730207400151357,-19.105489699589896],[-51.729845899668476,-19.106058900297967],[-51.729639400038252,-19.106400499683275],[-51.72950859994188,-19.10666719993128],[-51.729484499909688,-19.106715999843459],[-51.729961699972421,-19.107366199790249],[-51.730464799610786,-19.107523199835782],[-51.731817700126726,-19.108014399644787],[-51.73393300000788,-19.108643300048186],[-51.736562999882494,-19.109431599888353],[-51.737634700381079,-19.109755300066979],[-51.739823099856153,-19.110082100208729],[-51.74094010010549,-19.110250099862185],[-51.743047699991337,-19.110567199916318],[-51.743441600349513,-19.110631399819226],[-51.743616528380016,-19.110643492103407],[-51.743938480276597,-19.110665747626115],[-51.74427678004929,-19.110689132697246],[-51.744378952926297,-19.110063324163036],[-51.744623000151307,-19.108816100282752],[-51.744892400164076,-19.108216599616355],[-51.745335200259262,-19.10732890040839],[-51.745380442453438,-19.107256493292482],[-51.745613499962985,-19.106883500373215],[-51.74574239979188,-19.106701599898884],[-51.746125600016398,-19.106223200140505],[-51.74647469974758,-19.105844400298793],[-51.746702399995741,-19.105635200004428],[-51.746930000419127,-19.105431099765383],[-51.747251900155049,-19.105184199890857],[-51.747366317301669,-19.105096439549015],[-51.747434719736475,-19.105055418772508],[-51.747609286239538,-19.104950733189753]]]]}},
{"type":"Feature","properties":{"osm_id":null,"code":0,"fclass":null,"population":0,"name":"Balmant"},"geometry":{"type":"MultiPolygon","coordinates":[[[[-51.738503399999956,-19.100549599999908],[-51.73757408626625,-19.10027349660669],[-51.735577292665653,-19.099056828980338],[-51.734674028045845,-19.099205911490401],[-51.733542754881285,-19.099179602812058],[-51.733183202945213,-19.099205911490401],[-51.732367633919694,-19.09948653739167],[-51.731841460354758,-19.099986402278319],[-51.731666068999914,-19.100556423999876],[-51.732341324999936,-19.100696736999851],[-51.73354779999994,-19.102169999999887],[-51.733768899999916,-19.102443699999981],[-51.734019699999976,-19.102754199999822],[-51.734114099999942,-19.102738799999941],[-51.73440509999989,-19.102380899999844],[-51.734459,-19.102359299999932],[-51.734580499999936,-19.102389099999982],[-51.735047399999985,-19.102435799999853],[-51.735468699999956,-19.10247789999994],[-51.735466699999961,-19.102555899999913],[-51.73545409999997,-19.103328299999873],[-51.735686299999941,-19.103316],[-51.736145299999976,-19.103068199999939],[-51.736786599999959,-19.102737499999932],[-51.73784,-19.102159],[-51.738560599999971,-19.101600299999916],[-51.738364399999909,-19.101043999999888],[-51.738503399999956,-19.100549599999908]]]]}},
{"type":"Feature","properties":{"osm_id":null,"code":0,"fclass":null,"population":0,"name":"Jd. das Oliveiras"},"geometry":{"type":"MultiPolygon","coordinates":[[[[-51.743403247488004,-19.112083132535872],[-51.743214693822324,-19.112349695711941],[-51.742864445757448,-19.113115835852625],[-51.741298553228319,-19.116943573146216],[-51.744542588647164,-19.11705021098868],[-51.748112150111638,-19.11457509053929],[-51.747511610682864,-19.114047513844866],[-51.746933521326127,-19.113794950533702],[-51.74527782850862,-19.1122964082208],[-51.744127262313327,-19.112313245774942],[-51.743403247488004,-19.112083132535872]]]]}},
{"type":"Feature","properties":{"osm_id":null,"code":0,"fclass":null,"population":0,"name":"Jd. Minas Gerais"},"geometry":{"type":"MultiPolygon","coordinates":[[[[-51.737577454036227,-19.123701044767358],[-51.737361726462382,-19.124756791292839],[-51.738324816736849,-19.124523166310951],[-51.743651655899157,-19.123391249006829],[-51.744025681240146,-19.123095848694334],[-51.7442831652358,-19.122432615772539],[-51.744280371941556,-19.120809026515246],[-51.744161835000625,-19.120166056218409],[-51.744542589069169,-19.117050211098274],[-51.741298552785906,-19.116943573087326],[-51.740580150953122,-19.118644165895432],[-51.740024512021535,-19.119800345109752],[-51.739805623330824,-19.119940657335405],[-51.739379072186352,-19.120125870912148],[-51.739334171734583,-19.121147348771046],[-51.739581122870447,-19.121388687238039],[-51.738071355408636,-19.122853554248081],[-51.737577454036227,-19.123701044767358]]]]}},
{"type":"Feature","properties":{"osm_id":null,"code":0,"fclass":null,"population":0,"name":"Jd. Imperatriz"},"geometry":{"type":"MultiPolygon","coordinates":[[[[-51.73332385860914,-19.123538891606472],[-51.733533154231566,-19.125834028917268],[-51.734345586479549,-19.126076862956722],[-51.735702440415253,-19.126595900380437],[-51.736420651591743,-19.127042364313638],[-51.737361725563119,-19.124756791292839],[-51.737569355641199,-19.123740677889884],[-51.737577454036227,-19.123701044767358],[-51.738071355408636,-19.122853555147344],[-51.739581122870447,-19.121388687238039],[-51.739334171734583,-19.12114734877099],[-51.739379072186352,-19.120125870912148],[-51.739180343597923,-19.12011795238152],[-51.737445295064276,-19.120048817898578],[-51.735012532702171,-19.119951882673206],[-51.732952738977701,-19.11985647],[-51.733418577905013,-19.120765698078401],[-51.73346607200159,-19.12106100666],[-51.733087439433632,-19.121332562347732],[-51.732514564995142,-19.121538767899722],[-51.732211886469258,-19.121731051047107],[-51.732004223116348,-19.122112702639015],[-51.732206273800443,-19.122376490882289],[-51.732818038521543,-19.12277497958155],[-51.733233365227591,-19.122993867372998],[-51.733405066526075,-19.12302432451213],[-51.73332385860914,-19.123538891606472]]]]}},
{"type":"Feature","properties":{"osm_id":null,"code":0,"fclass":null,"population":0,"name":"Jd. Campo Grande"},"geometry":{"type":"MultiPolygon","coordinates":[[[[-51.744623000151307,-19.108816100282695],[-51.744378952926297,-19.110063324162979],[-51.74427678004929,-19.110689132697189],[-51.744023391566202,-19.111261811083693],[-51.743403246962259,-19.112083133130056],[-51.744127262363236,-19.112313246259248],[-51.745277828908627,-19.112296408252519],[-51.746933521264907,-19.113794951275963],[-51.747511610872039,-19.114047514181323],[-51.748112150255508,-19.114575090667813],[-51.74839838827495,-19.110808038360233],[-51.749533561124849,-19.109140701582078],[-51.749555970431629,-19.109150591426555],[-51.749772291557974,-19.108790056815565],[-51.750318921980579,-19.107879005811355],[-51.750948342192203,-19.106298497677471],[-51.750160095412014,-19.10574410520627],[-51.74834413397457,-19.104572336244303],[-51.74767505815737,-19.104911289824088],[-51.747366317301612,-19.105096439548959],[-51.74693000041907,-19.105431099765383],[-51.746702399995684,-19.105635200004428],[-51.746474699747523,-19.105844400298736],[-51.746125600016342,-19.106223200140448],[-51.745742399791823,-19.106701599898827],[-51.745613499962985,-19.106883500373158],[-51.745335200259262,-19.107328900408334],[-51.744892400164076,-19.108216599616355],[-51.744623000151307,-19.108816100282695]]]]}},
{"type":"Feature","properties":{"osm_id":null,"code":0,"fclass":null,"population":0,"name":"Centro"},"geometry":{"type":"MultiPolygon","coordinates":[[[[-51.729484499909688,-19.106715999843459],[-51.728852682105526,-19.107191710628911],[-51.728391468391521,-19.110156556879531],[-51.728386870157863,-19.110977260192385],[-51.728554689047598,-19.111887619617903],[-51.728529401011031,-19.112257740102564],[-51.728731703505275,-19.112933612995789],[-51.728779980012007,-19.113489943506067],[-51.729057427158523,-19.114120701009483],[-51.729262171312087,-19.114433206427293],[-51.729632148804569,-19.114767263198587],[-51.730749264167173,-19.115324025383416],[-51.731065361477192,-19.115600610080037],[-51.731270105630813,-19.115920299282323],[-51.731539506542958,-19.116678213728562],[-51.731805315562838,-19.117102070504131],[-51.732311789457469,-19.117637280436099],[-51.732728462448563,-19.118240738119539],[-51.732771566954227,-19.118847788594508],[-51.732771566954227,-19.119735014759101],[-51.732952738977701,-19.119856470000059],[-51.735012532702171,-19.119951882673206],[-51.737445295064276,-19.120048817898578],[-51.739180343597923,-19.120117953280896],[-51.739379072186409,-19.120125870912148],[-51.739805623330824,-19.119940658234725],[-51.740024512021591,-19.119800345109809],[-51.740580150953178,-19.118644165895489],[-51.741298552785963,-19.116943573087383],[-51.742864446037288,-19.113115836326756],[-51.74321469420272,-19.112349695781802],[-51.743403246962259,-19.112083133130056],[-51.744023391566202,-19.111261811083693],[-51.74427678004929,-19.110689132697246],[-51.743441600349513,-19.110631399819226],[-51.743047699991337,-19.110567199916318],[-51.74094010010549,-19.110250099862185],[-51.739823099856153,-19.110082100208729],[-51.737634700381079,-19.109755300066979],[-51.736562999882494,-19.109431599888353],[-51.73393300000788,-19.108643300048186],[-51.731817700126726,-19.108014399644787],[-51.730464799610786,-19.107523199835782],[-51.729961699972421,-19.107366199790249],[-51.729484499909688,-19.106715999843459]]]]}},
{"type":"Feature","properties":{"osm_id":null,"code":0,"fclass":null,"population":0,"name":"Jd. Duarte"},"geometry":{"type":"MultiPolygon","coordinates":[[[[-51.724055312364627,-19.121357856419909],[-51.72791830999995,-19.118402827999944],[-51.730769468999938,-19.116242007999972],[-51.731218635247409,-19.11583993252744],[-51.731065360999935,-19.115600609999944],[-51.73074926399994,-19.11532402499995],[-51.72963214899994,-19.114767262999976],[-51.729262171999949,-19.114433205999887],[-51.729057426999987,-19.114120700999877],[-51.728779979999956,-19.113489943999923],[-51.728731702999937,-19.112933612999882],[-51.728529400999889,-19.112257739999905],[-51.728531171795467,-19.112231822227507],[-51.728324866999969,-19.11234271099994],[-51.728053010999986,-19.112807497999938],[-51.727281288999961,-19.113131971999962],[-51.72607985999997,-19.11345644599993],[-51.725045051999984,-19.11372830199997],[-51.723338051628318,-19.114344719076193],[-51.723368421999965,-19.114501666999956],[-51.724055312364627,-19.121357856419909]]]]}},
{"type":"Feature","properties":{"osm_id":null,"code":0,"fclass":null,"population":0,"name":"Jd. Laranjeiras"},"geometry":{"type":"MultiPolygon","coordinates":[[[[-51.722568023595386,-19.122463746704511],[-51.72397832334093,-19.121416749683192],[-51.724055312502628,-19.121357856679708],[-51.723368422015028,-19.114501667318052],[-51.723192570380775,-19.113592899692549],[-51.722883881685732,-19.108996247978439],[-51.721744540478142,-19.108575308603577],[-51.721424627344618,-19.108637046162698],[-51.721879240934186,-19.114861328687311],[-51.720248102767698,-19.115289283673462],[-51.717380457042395,-19.115727761626829],[-51.71597867747397,-19.116134816368628],[-51.714249724545084,-19.116718721891459],[-51.715652853995948,-19.1182797030458],[-51.717757548172244,-19.120217776229367],[-51.718836204027525,-19.122085692400731],[-51.721346051778823,-19.120501909835241],[-51.722568023595386,-19.122463746704511]]]]}},
{"type":"Feature","properties":{"osm_id":null,"code":0,"fclass":null,"population":0,"name":"Jd. Alvorada"},"geometry":{"type":"MultiPolygon","coordinates":[[[[-51.728554689047598,-19.111887619617903],[-51.728273308266523,-19.111949252855709],[-51.727328995836444,-19.112156095127659],[-51.726374868205539,-19.112156095127659],[-51.725555440131416,-19.112066295123384],[-51.724651824721889,-19.112290795583704],[-51.723122695755762,-19.112552408366923],[-51.723149204172387,-19.112947133403452],[-51.723159699260691,-19.113103425682482],[-51.723192570380775,-19.113592899692549],[-51.723338051909536,-19.114344719433234],[-51.725045052387202,-19.113728301619801],[-51.726079859997526,-19.113456445558484],[-51.727281288600523,-19.1131319719629],[-51.728053011237421,-19.112807498367317],[-51.728324867298738,-19.112342710747441],[-51.728531171776126,-19.112231822540537],[-51.728554689047598,-19.111887619617903]]]]}},
{"type":"Feature","properties":{"osm_id":null,"code":0,"fclass":null,"population":0,"name":"Set. Industrial"},"geometry":{"type":"MultiPolygon","coordinates":[[[[-51.716179027239264,-19.126470471712707],[-51.718958976702879,-19.124953338804115],[-51.721211350999965,-19.123470931999975],[-51.722568023519038,-19.12246374715367],[-51.721346051999944,-19.120501909999973],[-51.718836203871007,-19.122085692002486],[-51.718648204115645,-19.122186161441018],[-51.718606834042639,-19.122208270124535],[-51.716670122566484,-19.123243273847834],[-51.715056523634075,-19.123786986531627],[-51.715240684381797,-19.124593785997774],[-51.716179027239264,-19.126470471712707]]]]}},
{"type":"Feature","properties":{"osm_id":null,"code":0,"fclass":null,"population":0,"name":"Alto Isanópolis"},"geometry":{"type":"MultiPolygon","coordinates":[[[[-51.721782776054226,-19.130907869002897],[-51.723378835265009,-19.13046939104953],[-51.723545457157059,-19.129531048319166],[-51.723773578287989,-19.128934156586013],[-51.725227897149693,-19.128982723573813],[-51.725379565114793,-19.128987788555548],[-51.725709672063658,-19.128998813344538],[-51.731042612226759,-19.129207548689351],[-51.732526478314298,-19.1261584845264],[-51.733533154231623,-19.125834028917268],[-51.733464490094093,-19.125081058943692],[-51.726574791993016,-19.124819601743184],[-51.72216260741834,-19.12464147032756],[-51.722019554059159,-19.124935798648153],[-51.720404871687435,-19.125855370728743],[-51.719700365279607,-19.126205229487709],[-51.720236643606199,-19.126782940480268],[-51.720871232221555,-19.127641032207805],[-51.721539346663462,-19.128916196225418],[-51.721897981006975,-19.129490270359668],[-51.721782776054226,-19.130907869002897]]]]}},
{"type":"Feature","properties":{"osm_id":null,"code":0,"fclass":null,"population":0,"name":"Moreninha"},"geometry":{"type":"MultiPolygon","coordinates":[[[[-51.726657963094453,-19.130830738647603],[-51.727925943327591,-19.130877435045534],[-51.72970168798247,-19.130522008583796],[-51.731042612226759,-19.129207548689351],[-51.725709672063658,-19.128998813344538],[-51.725379565114793,-19.128987788555548],[-51.725227897149693,-19.128982723573813],[-51.724500737718813,-19.128958440079884],[-51.723773578287989,-19.128934156586013],[-51.723545457157059,-19.129531048319166],[-51.723378835265009,-19.13046939104953],[-51.726657963094453,-19.130830738647603]]]]}},
{"type":"Feature","properties":{"osm_id":null,"code":0,"fclass":null,"population":0,"name":"Isanópolis"},"geometry":{"type":"MultiPolygon","coordinates":[[[[-51.721211351322779,-19.123470931638167],[-51.718958976775298,-19.124953339025353],[-51.719344838093775,-19.125663672140718],[-51.719700365279607,-19.126205229487709],[-51.720274411534831,-19.125926758912726],[-51.720275738034843,-19.125928913688369],[-51.722019554059159,-19.124935798648153],[-51.72216260741834,-19.12464147032756],[-51.726574791993016,-19.124819601743184],[-51.732848595686107,-19.125066757924515],[-51.733464490094093,-19.125081058943692],[-51.73332385860914,-19.123538891606529],[-51.733405065591285,-19.123024323813468],[-51.733233365227591,-19.122993867373054],[-51.7328180385216,-19.122774979581607],[-51.732206273800443,-19.122376490882289],[-51.732004223116348,-19.122112701739752],[-51.732211887368692,-19.121731051047107],[-51.732514564995142,-19.121538767899779],[-51.733087439433746,-19.121332562347845],[-51.73346607200159,-19.121061005760737],[-51.733418577905013,-19.120765698078458],[-51.732952738977701,-19.119856470000059],[-51.732771566954227,-19.119735014759101],[-51.732771566954227,-19.118847787695188],[-51.732728463347883,-19.118240738119539],[-51.73231178855815,-19.117637280436099],[-51.731805315562838,-19.117102071403451],[-51.731539507442278,-19.116678212829186],[-51.731270105630813,-19.115920299282323],[-51.731218635631478,-19.115839932267022],[-51.730769469235554,-19.116242008361951],[-51.727918309882057,-19.118402828327817],[-51.72397832334093,-19.121416749683192],[-51.721211351322779,-19.123470931638167]]]]}}
]
}
