{
  "type": "FeatureCollection",
  "name": "bairros_exemplo",
  "crs": { "type": "name", "properties": { "name": "urn:ogc:def:crs:OGC:1.3:CRS84" } },
  "features": [
    {
      "type": "Feature",
      "properties": { "nome": "Centro (exemplo)" },
      "geometry": {
        "type": "Polygon",
        "coordinates": [[
          [-51.7400, -19.1180],
          [-51.7280, -19.1180],
          [-51.7280, -19.1090],
          [-51.7400, -19.1090],
          [-51.7400, -19.1180]
        ]]
      }
    },
    {
      "type": "Feature",
      "properties": { "nome": "Jardim América (exemplo)" },
      "geometry": {
        "type": "Polygon",
        "coordinates": [[
          [-51.7280, -19.1230],
          [-51.7180, -19.1230],
          [-51.7180, -19.1150],
          [-51.7280, -19.1150],
          [-51.7280, -19.1230]
        ]]
      }
    }
  ]
}
