{
"type": "FeatureCollection",
"name": "Cidades_Zoom",
"crs": { "type": "name", "properties": { "name": "urn:ogc:def:crs:OGC:1.3:CRS84" } },
"features": [
{"type":"Feature","properties":{"id":null,"Name":"Aporé","description":null,"timestamp":null,"begin":null,"end":null,"altitudeMode":null,"tessellate":1,"extrude":0,"visibility":-1,"drawOrder":null,"icon":null},"geometry":{"type":"Polygon","coordinates":[[[-51.931135248634597,-18.954513370200271,0.0],[-51.93263560533704,-18.955908670368249,0.0],[-51.932965801026683,-18.96136927719818,0.0],[-51.928092984951959,-18.965809728783761,0.0],[-51.933045362798502,-18.969763635961449,0.0],[-51.932384499080626,-18.970945760079822,0.0],[-51.92861885677663,-18.972279707368092,0.0],[-51.924567309325411,-18.96846028107456,0.0],[-51.923809433853663,-18.969097661068488,0.0],[-51.920252559208777,-18.965805184892371,0.0],[-51.924169172549789,-18.96031971378131,0.0],[-51.923684444340047,-18.956104577816451,0.0],[-51.927288284156113,-18.955772809320901,0.0],[-51.92869026249754,-18.956963614670421,0.0],[-51.931135248634597,-18.954513370200271,0.0]]]}},
{"type":"Feature","properties":{"id":null,"Name":"Itaja","description":null,"timestamp":null,"begin":null,"end":null,"altitudeMode":null,"tessellate":1,"extrude":0,"visibility":-1,"drawOrder":null,"icon":null},"geometry":{"type":"Polygon","coordinates":[[[-51.554607061608323,-19.06327937559065,0.0],[-51.55371765852761,-19.066226803064051,0.0],[-51.554526946927723,-19.067230246313851,0.0],[-51.558881569597823,-19.067954754453851,0.0],[-51.557927447456017,-19.069999825229822,0.0],[-51.556910985451118,-19.070592883505672,0.0],[-51.556640625092413,-19.073162262755091,0.0],[-51.55327288692741,-19.07218701076734,0.0],[-51.55218747641203,-19.076514179776741,0.0],[-51.549335075245999,-19.075253675913281,0.0],[-51.547826027024577,-19.07538737895025,0.0],[-51.543402247894207,-19.074326079024221,0.0],[-51.543461870803498,-19.071288680390939,0.0],[-51.542126795510427,-19.07004689668511,0.0],[-51.540857857197587,-19.06424961148662,0.0],[-51.545067345052857,-19.061021523543939,0.0],[-51.548451606821772,-19.060709295076521,0.0],[-51.551623777897433,-19.061896024715161,0.0],[-51.554607061608323,-19.06327937559065,0.0]]]}},
{"type":"Feature","properties":{"id":null,"Name":"Chapadao do Sul","description":null,"timestamp":null,"begin":null,"end":null,"altitudeMode":null,"tessellate":1,"extrude":0,"visibility":-1,"drawOrder":null,"icon":null},"geometry":{"type":"Polygon","coordinates":[[[-52.65031469569049,-18.767566130164209,0.0],[-52.656764541839117,-18.77932349627886,0.0],[-52.641947192209606,-18.797433024441219,0.0],[-52.635999551610837,-18.80239391946732,0.0],[-52.63018161501757,-18.814145385874781,0.0],[-52.620975033851309,-18.817209103506318,0.0],[-52.620418333627583,-18.817470947703509,0.0],[-52.597426887695264,-18.809511682181618,0.0],[-52.579836278378927,-18.81174126527862,0.0],[-52.569538742428591,-18.780311307754982,0.0],[-52.584780437877889,-18.774220835147769,0.0],[-52.605623777448287,-18.771358777744741,0.0],[-52.623749950754423,-18.774705397530418,0.0],[-52.624890497087577,-18.774705006046311,0.0],[-52.625745766176763,-18.774704152400801,0.0],[-52.65031469569049,-18.767566130164209,0.0]]]}},
{"type":"Feature","properties":{"id":null,"Name":"Chapadão do Céu","description":null,"timestamp":null,"begin":null,"end":null,"altitudeMode":null,"tessellate":1,"extrude":0,"visibility":-1,"drawOrder":null,"icon":null},"geometry":{"type":"Polygon","coordinates":[[[-52.673863612401078,-18.375130115320889,0.0],[-52.680423661327112,-18.383823211578989,0.0],[-52.683564107933222,-18.382649741501449,0.0],[-52.686402927243407,-18.38717304616322,0.0],[-52.682609790085912,-18.390319131643061,0.0],[-52.684364663825157,-18.393527995622492,0.0],[-52.684266221102291,-18.3937412451338,0.0],[-52.666229520598641,-18.405327680140878,0.0],[-52.660249041876632,-18.399458263172129,0.0],[-52.656309508447258,-18.401891472789899,0.0],[-52.656466095410941,-18.40332182846981,0.0],[-52.656378185816941,-18.403321996548229,0.0],[-52.650816185837193,-18.406764769468271,0.0],[-52.646704653379857,-18.401973862283,0.0],[-52.65582963768756,-18.39626775781624,0.0],[-52.65403424311107,-18.390796961908361,0.0],[-52.653752202572228,-18.388724451784171,0.0],[-52.653888079826118,-18.388681051507799,0.0],[-52.657870326850578,-18.387026316059959,0.0],[-52.655242202767219,-18.384078517264399,0.0],[-52.667059154484072,-18.378813751531709,0.0],[-52.673863612401078,-18.375130115320889,0.0]]]}},
{"type":"Feature","properties":{"id":null,"Name":"Paraiso das Águas","description":null,"timestamp":null,"begin":null,"end":null,"altitudeMode":null,"tessellate":1,"extrude":0,"visibility":-1,"drawOrder":null,"icon":null},"geometry":{"type":"Polygon","coordinates":[[[-53.01885146891059,-19.039053829881219,0.0],[-53.011646526982886,-19.04526095392681,0.0],[-53.011407341905588,-19.045377429851399,0.0],[-53.004183327159133,-19.045843772021371,0.0],[-53.004183841782357,-19.045731520672138,0.0],[-53.006488070776903,-19.017411372659339,0.0],[-53.009232269884542,-19.012475676802431,0.0],[-53.018137257458072,-19.015628464523999,0.0],[-53.020932134655787,-19.011585027505671,0.0],[-53.02607605821418,-19.015145877367679,0.0],[-53.030493549821273,-19.015941178525779,0.0],[-53.030433908174679,-19.01594114751294,0.0],[-53.019615595694759,-19.030800445417611,0.0],[-53.01885146891059,-19.039053829881219,0.0]]]}},
{"type":"Feature","properties":{"id":null,"Name":"Ribas do Rio Pardo","description":null,"timestamp":null,"begin":null,"end":null,"altitudeMode":null,"tessellate":1,"extrude":0,"visibility":-1,"drawOrder":null,"icon":null},"geometry":{"type":"Polygon","coordinates":[[[-53.758732318668073,-20.42457518105536,0.0],[-53.795023926884838,-20.44943139813364,0.0],[-53.7965313258834,-20.45586646674434,0.0],[-53.77077063864423,-20.472063576706251,0.0],[-53.751520596586637,-20.48135950193728,0.0],[-53.72877595275127,-20.477375579960579,0.0],[-53.713856873813789,-20.46260475415075,0.0],[-53.713844231714141,-20.46220011091307,0.0],[-53.713938551699293,-20.461592301582449,0.0],[-53.707803319468809,-20.443776662207721,0.0],[-53.708010520875462,-20.443463867761569,0.0],[-53.708519606571443,-20.442420396815329,0.0],[-53.709690457507421,-20.433630579004031,0.0],[-53.709896334228638,-20.433206891155312,0.0],[-53.710430519620019,-20.432676267612528,0.0],[-53.711293634743122,-20.432038403237481,0.0],[-53.713253481386587,-20.43097397692252,0.0],[-53.717467246804972,-20.429623959741519,0.0],[-53.718254986795863,-20.42953097356871,0.0],[-53.748159756958167,-20.421346232899069,0.0],[-53.758732318668073,-20.42457518105536,0.0]]]}},
{"type":"Feature","properties":{"id":null,"Name":"Campo Grande","description":null,"timestamp":null,"begin":null,"end":null,"altitudeMode":null,"tessellate":1,"extrude":0,"visibility":-1,"drawOrder":null,"icon":null},"geometry":{"type":"Polygon","coordinates":[[[-54.561662889640367,-20.365016188141269,0.0],[-54.566125306017518,-20.364464149073651,0.0],[-54.749108442099917,-20.404083077688892,0.0],[-54.757225395888263,-20.4767630670733,0.0],[-54.691123409094629,-20.57841896561559,0.0],[-54.602340715346379,-20.592828943309321,0.0],[-54.59995121444247,-20.59255354373618,0.0],[-54.526385177317103,-20.544589423627929,0.0],[-54.502806020254532,-20.446677319479409,0.0],[-54.561662889640367,-20.365016188141269,0.0]]]}},
{"type":"Feature","properties":{"id":null,"Name":"Água Clara","description":null,"timestamp":null,"begin":null,"end":null,"altitudeMode":null,"tessellate":1,"extrude":0,"visibility":-1,"drawOrder":null,"icon":null},"geometry":{"type":"Polygon","coordinates":[[[-52.903008434475431,-20.43049057150845,0.0],[-52.903180368781292,-20.431519143929531,0.0],[-52.899542417825216,-20.446891851602459,0.0],[-52.879464240765998,-20.46055925279644,0.0],[-52.879279561079272,-20.46072865803189,0.0],[-52.878364159994732,-20.460891468044949,0.0],[-52.863731397667152,-20.461775124730309,0.0],[-52.862089812381882,-20.461584575393829,0.0],[-52.861185534383758,-20.460887940540999,0.0],[-52.859734123190137,-20.460184904458799,0.0],[-52.857194064345009,-20.45878838210599,0.0],[-52.855923171930669,-20.458259317181401,0.0],[-52.845657785866472,-20.44822051216283,0.0],[-52.845663956412189,-20.44753708838391,0.0],[-52.845497816613538,-20.445826117792311,0.0],[-52.845346718347848,-20.443942787654741,0.0],[-52.845198923461382,-20.441548129056081,0.0],[-52.845787834854711,-20.438991694638261,0.0],[-52.846348373259019,-20.438143858802771,0.0],[-52.848590440914997,-20.434755066984771,0.0],[-52.849512246412012,-20.433567655229851,0.0],[-52.850064121940328,-20.432890141742948,0.0],[-52.850799886986692,-20.43204303518754,0.0],[-52.851535437683047,-20.431194956466591,0.0],[-52.852827828505909,-20.429498566235349,0.0],[-52.853756323240027,-20.427453222914391,0.0],[-52.8555982478996,-20.42489859500548,0.0],[-52.857261967990283,-20.422861776340369,0.0],[-52.858189315075528,-20.42167590037409,0.0],[-52.858925171861948,-20.421170746164979,0.0],[-52.860027804305602,-20.420498307681932,0.0],[-52.861130389624783,-20.419825875729281,0.0],[-52.863161877243563,-20.41779756112803,0.0],[-52.863530546065221,-20.41745918554679,0.0],[-52.864447771745859,-20.416953746078711,0.0],[-52.865917634676833,-20.415937908440981,0.0],[-52.867572815646447,-20.4149368030779,0.0],[-52.878201390014453,-20.410130083493591,0.0],[-52.879660425661733,-20.409974013501198,0.0],[-52.8823986234313,-20.40948818291503,0.0],[-52.893719448012668,-20.408550485370821,0.0],[-52.894266029142791,-20.408724052154209,0.0],[-52.894994059227344,-20.409068864178249,0.0],[-52.899729175285621,-20.41148294204865,0.0],[-52.900276363168473,-20.411657926934971,0.0],[-52.901278830589924,-20.421234594770091,0.0],[-52.903008434475431,-20.43049057150845,0.0]]]}}
]
}
