{"type": "FeatureCollection", "name": "REF_CASSILANDIA", "features": [{"type": "Feature", "properties": {"nome": "Praça Centro"}, "geometry": {"type": "MultiPolygon", "coordinates": [[[[-51.73522862758271, -19.11249348047205], [-51.73377294834394, -19.11244626202053], [-51.733731772938434, -19.11345875545015], [-51.73518750366702, -19.113515614984543], [-51.73522862758271, -19.11249348047205]]]]}}, {"type": "Feature", "properties": {"nome": "FIC"}, "geometry": {"type": "MultiPolygon", "coordinates": [[[[-51.74222667268609, -19.118952969738213], [-51.74250296590139, -19.11831630657332], [-51.74141968523686, -19.117768425335353], [-51.7409384294975, -19.11756982625683], [-51.740697614138504, -19.11815698145996], [-51.74222667268609, -19.118952969738213]]]]}}, {"type": "Feature", "properties": {"nome": "Praça Vila Pernambuco"}, "geometry": {"type": "MultiPolygon", "coordinates": [[[[-51.73447814518033, -19.105526442538043], [-51.733634108794554, -19.105480444116072], [-51.73361477756164, -19.106248735053356], [-51.734468595120276, -19.106303950017914], [-51.73447814518033, -19.105526442538043]]]]}}, {"type": "Feature", "properties": {"nome": "Supermercado Rezende"}, "geometry": {"type": "MultiPolygon", "coordinates": [[[[-51.733282036834524, -19.108720932319066], [-51.73323427704408, -19.10966692008726], [-51.73387216935969, -19.10971176702374], [-51.733903918181696, -19.108904059775362], [-51.73360400598627, -19.108810136774967], [-51.733282036834524, -19.108720932319066]]]]}}, {"type": "Feature", "properties": {"nome": "Villa Real"}, "geometry": {"type": "MultiPolygon", "coordinates": [[[[-51.72319511404113, -19.12083049981449], [-51.7225350968146, -19.12132055378602], [-51.72239063232843, -19.12168825947753], [-51.72275992718706, -19.12226682632916], [-51.72374326298071, -19.12148549161028], [-51.72319511404113, -19.12083049981449]]]]}}, {"type": "Feature", "properties": {"nome": "Estadio Municipal"}, "geometry": {"type": "MultiPolygon", "coordinates": [[[[-51.72363121985616, -19.128099796307353], [-51.72256922878064, -19.128081374228056], [-51.722534551023365, -19.129218874789096], [-51.72260646223583, -19.129354172152958], [-51.72323286887108, -19.12943456463939], [-51.72346297846226, -19.12950144965321], [-51.723668461447645, -19.12937259374721], [-51.723640747474825, -19.12842542260222], [-51.72363121985616, -19.128099796307353]]]]}}, {"type": "Feature", "properties": {"nome": "Arena Rodeio"}, "geometry": {"type": "MultiPolygon", "coordinates": [[[[-51.74873233638257, -19.108842879886826], [-51.74551996259062, -19.107197626666803], [-51.74536856492897, -19.10736214031238], [-51.745202644670236, -19.107680972094368], [-51.74469033577001, -19.108786964299973], [-51.747770861361964, -19.11042794603541], [-51.74873233638257, -19.108842879886826]]]]}}, {"type": "Feature", "properties": {"nome": "Santa Casa"}, "geometry": {"type": "MultiPolygon", "coordinates": [[[[-51.73891300824377, -19.1161502669432], [-51.73853072910521, -19.116136005120094], [-51.738514173682994, -19.116617854871137], [-51.73890470143065, -19.116618261927734], [-51.73891300824377, -19.1161502669432]]]]}}, {"type": "Feature", "properties": {"nome": "Pedágio"}, "geometry": {"type": "MultiPolygon", "coordinates": [[[[-51.79417857371264, -19.22120387713927], [-51.793823157594616, -19.221207392027], [-51.79382454186173, -19.221495660040368], [-51.79418618466093, -19.221490143657586], [-51.79417857371264, -19.22120387713927]]]]}}]}